[{"OBJECT_NAME":"FORTE","OBJECT_ID":"1997-047A","EPOCH":"2026-03-09T21:41:12.798240","MEAN_MOTION":14.27898785,"ECCENTRICITY":0.00196357,"INCLINATION":69.9517,"RA_OF_ASC_NODE":238.2652,"ARG_OF_PERICENTER":49.0734,"MEAN_ANOMALY":311.2084,"EPHEMERIS_TYPE":0,"CLASSIFICATION_TYPE":"U","NORAD_CAT_ID":24920,"ELEMENT_SET_NO":999,"REV_AT_EPOCH":48451,"BSTAR":0.0001374801,"MEAN_MOTION_DOT":2.83e-6,"MEAN_MOTION_DDOT":0},{"OBJECT_NAME":"COSMOS 249 DEB","OBJECT_ID":"1968-091AV","EPOCH":"2026-03-09T05:44:13.151040","MEAN_MOTION":12.82335177,"ECCENTRICITY":0.07795931,"INCLINATION":62.2634,"RA_OF_ASC_NODE":6.1174,"ARG_OF_PERICENTER":83.4618,"MEAN_ANOMALY":285.4433,"EPHEMERIS_TYPE":0,"CLASSIFICATION_TYPE":"U","NORAD_CAT_ID":3758,"ELEMENT_SET_NO":999,"REV_AT_EPOCH":60107,"BSTAR":0.0026277027,"MEAN_MOTION_DOT":2.23e-5,"MEAN_MOTION_DDOT":0}]
